{
  "type": "FeatureCollection",
  "features": [
    {
      "type": "Feature",
      "properties": { "name": "Pacific" },
      "geometry": {
        "type": "Polygon",
        "coordinates": [[
          [-125, 49],
          [-114, 49],
          [-114, 32],
          [-125, 32],
          [-125, 49]
        ]]
      }
    },
    {
      "type": "Feature",
      "properties": { "name": "Mountain" },
      "geometry": {
        "type": "Polygon",
        "coordinates": [[
          [-114, 49],
          [-105, 49],
          [-105, 31],
          [-114, 31],
          [-114, 49]
        ]]
      }
    },
    {
      "type": "Feature",
      "properties": { "name": "Central" },
      "geometry": {
        "type": "Polygon",
        "coordinates": [[
          [-105, 49],
          [-90, 49],
          [-90, 29],
          [-105, 29],
          [-105, 49]
        ]]
      }
    },
    {
      "type": "Feature",
      "properties": { "name": "Eastern" },
      "geometry": {
        "type": "Polygon",
        "coordinates": [[
          [-90, 49],
          [-66, 49],
          [-66, 24],
          [-90, 24],
          [-90, 49]
        ]]
      }
    },
    {
      "type": "Feature",
      "properties": { "name": "Alaska" },
      "geometry": {
        "type": "Polygon",
        "coordinates": [[
          [-170, 72],
          [-130, 72],
          [-130, 51],
          [-170, 51],
          [-170, 72]
        ]]
      }
    },
    {
      "type": "Feature",
      "properties": { "name": "Hawaii" },
      "geometry": {
        "type": "Polygon",
        "coordinates": [[
          [-161, 23],
          [-154, 23],
          [-154, 18],
          [-161, 18],
          [-161, 23]
        ]]
      }
    }
  ]
}
