{
  "type": "FeatureCollection",
  "features": [
    {
      "type": "Feature",
      "properties": {
        "tzid": "Etc/GMT+11",
        "kind": "boundary-meridian"
      },
      "geometry": {
        "type": "LineString",
        "coordinates": [
          [
            -165.4341,
            -85
          ],
          [
            -165.8551,
            -80
          ],
          [
            -166.25,
            -75
          ],
          [
            -166.607,
            -70
          ],
          [
            -166.9151,
            -65
          ],
          [
            -167.1651,
            -60
          ],
          [
            -167.3492,
            -55
          ],
          [
            -167.462,
            -50
          ],
          [
            -167.5,
            -45
          ],
          [
            -167.462,
            -40
          ],
          [
            -167.3492,
            -35
          ],
          [
            -167.1651,
            -30
          ],
          [
            -166.9151,
            -25
          ],
          [
            -166.607,
            -20
          ],
          [
            -166.25,
            -15
          ],
          [
            -165.8551,
            -10
          ],
          [
            -165.4341,
            -5
          ],
          [
            -165.0,
            0
          ],
          [
            -164.5659,
            5
          ],
          [
            -164.1449,
            10
          ],
          [
            -163.75,
            15
          ],
          [
            -163.393,
            20
          ],
          [
            -163.0849,
            25
          ],
          [
            -162.8349,
            30
          ],
          [
            -162.6508,
            35
          ],
          [
            -162.538,
            40
          ],
          [
            -162.5,
            45
          ],
          [
            -162.538,
            50
          ],
          [
            -162.6508,
            55
          ],
          [
            -162.8349,
            60
          ],
          [
            -163.0849,
            65
          ],
          [
            -163.393,
            70
          ],
          [
            -163.75,
            75
          ],
          [
            -164.1449,
            80
          ],
          [
            -164.5659,
            85
          ]
        ]
      }
    },
    {
      "type": "Feature",
      "properties": {
        "tzid": "Etc/GMT+10",
        "kind": "boundary-meridian"
      },
      "geometry": {
        "type": "LineString",
        "coordinates": [
          [
            -150.4341,
            -85
          ],
          [
            -150.8551,
            -80
          ],
          [
            -151.25,
            -75
          ],
          [
            -151.607,
            -70
          ],
          [
            -151.9151,
            -65
          ],
          [
            -152.1651,
            -60
          ],
          [
            -152.3492,
            -55
          ],
          [
            -152.462,
            -50
          ],
          [
            -152.5,
            -45
          ],
          [
            -152.462,
            -40
          ],
          [
            -152.3492,
            -35
          ],
          [
            -152.1651,
            -30
          ],
          [
            -151.9151,
            -25
          ],
          [
            -151.607,
            -20
          ],
          [
            -151.25,
            -15
          ],
          [
            -150.8551,
            -10
          ],
          [
            -150.4341,
            -5
          ],
          [
            -150.0,
            0
          ],
          [
            -149.5659,
            5
          ],
          [
            -149.1449,
            10
          ],
          [
            -148.75,
            15
          ],
          [
            -148.393,
            20
          ],
          [
            -148.0849,
            25
          ],
          [
            -147.8349,
            30
          ],
          [
            -147.6508,
            35
          ],
          [
            -147.538,
            40
          ],
          [
            -147.5,
            45
          ],
          [
            -147.538,
            50
          ],
          [
            -147.6508,
            55
          ],
          [
            -147.8349,
            60
          ],
          [
            -148.0849,
            65
          ],
          [
            -148.393,
            70
          ],
          [
            -148.75,
            75
          ],
          [
            -149.1449,
            80
          ],
          [
            -149.5659,
            85
          ]
        ]
      }
    },
    {
      "type": "Feature",
      "properties": {
        "tzid": "Etc/GMT+9",
        "kind": "boundary-meridian"
      },
      "geometry": {
        "type": "LineString",
        "coordinates": [
          [
            -135.4341,
            -85
          ],
          [
            -135.8551,
            -80
          ],
          [
            -136.25,
            -75
          ],
          [
            -136.607,
            -70
          ],
          [
            -136.9151,
            -65
          ],
          [
            -137.1651,
            -60
          ],
          [
            -137.3492,
            -55
          ],
          [
            -137.462,
            -50
          ],
          [
            -137.5,
            -45
          ],
          [
            -137.462,
            -40
          ],
          [
            -137.3492,
            -35
          ],
          [
            -137.1651,
            -30
          ],
          [
            -136.9151,
            -25
          ],
          [
            -136.607,
            -20
          ],
          [
            -136.25,
            -15
          ],
          [
            -135.8551,
            -10
          ],
          [
            -135.4341,
            -5
          ],
          [
            -135.0,
            0
          ],
          [
            -134.5659,
            5
          ],
          [
            -134.1449,
            10
          ],
          [
            -133.75,
            15
          ],
          [
            -133.393,
            20
          ],
          [
            -133.0849,
            25
          ],
          [
            -132.8349,
            30
          ],
          [
            -132.6508,
            35
          ],
          [
            -132.538,
            40
          ],
          [
            -132.5,
            45
          ],
          [
            -132.538,
            50
          ],
          [
            -132.6508,
            55
          ],
          [
            -132.8349,
            60
          ],
          [
            -133.0849,
            65
          ],
          [
            -133.393,
            70
          ],
          [
            -133.75,
            75
          ],
          [
            -134.1449,
            80
          ],
          [
            -134.5659,
            85
          ]
        ]
      }
    },
    {
      "type": "Feature",
      "properties": {
        "tzid": "Etc/GMT+8",
        "kind": "boundary-meridian"
      },
      "geometry": {
        "type": "LineString",
        "coordinates": [
          [
            -120.4341,
            -85
          ],
          [
            -120.8551,
            -80
          ],
          [
            -121.25,
            -75
          ],
          [
            -121.607,
            -70
          ],
          [
            -121.9151,
            -65
          ],
          [
            -122.1651,
            -60
          ],
          [
            -122.3492,
            -55
          ],
          [
            -122.462,
            -50
          ],
          [
            -122.5,
            -45
          ],
          [
            -122.462,
            -40
          ],
          [
            -122.3492,
            -35
          ],
          [
            -122.1651,
            -30
          ],
          [
            -121.9151,
            -25
          ],
          [
            -121.607,
            -20
          ],
          [
            -121.25,
            -15
          ],
          [
            -120.8551,
            -10
          ],
          [
            -120.4341,
            -5
          ],
          [
            -120.0,
            0
          ],
          [
            -119.5659,
            5
          ],
          [
            -119.1449,
            10
          ],
          [
            -118.75,
            15
          ],
          [
            -118.393,
            20
          ],
          [
            -118.0849,
            25
          ],
          [
            -117.8349,
            30
          ],
          [
            -117.6508,
            35
          ],
          [
            -117.538,
            40
          ],
          [
            -117.5,
            45
          ],
          [
            -117.538,
            50
          ],
          [
            -117.6508,
            55
          ],
          [
            -117.8349,
            60
          ],
          [
            -118.0849,
            65
          ],
          [
            -118.393,
            70
          ],
          [
            -118.75,
            75
          ],
          [
            -119.1449,
            80
          ],
          [
            -119.5659,
            85
          ]
        ]
      }
    },
    {
      "type": "Feature",
      "properties": {
        "tzid": "Etc/GMT+7",
        "kind": "boundary-meridian"
      },
      "geometry": {
        "type": "LineString",
        "coordinates": [
          [
            -105.4341,
            -85
          ],
          [
            -105.8551,
            -80
          ],
          [
            -106.25,
            -75
          ],
          [
            -106.607,
            -70
          ],
          [
            -106.9151,
            -65
          ],
          [
            -107.1651,
            -60
          ],
          [
            -107.3492,
            -55
          ],
          [
            -107.462,
            -50
          ],
          [
            -107.5,
            -45
          ],
          [
            -107.462,
            -40
          ],
          [
            -107.3492,
            -35
          ],
          [
            -107.1651,
            -30
          ],
          [
            -106.9151,
            -25
          ],
          [
            -106.607,
            -20
          ],
          [
            -106.25,
            -15
          ],
          [
            -105.8551,
            -10
          ],
          [
            -105.4341,
            -5
          ],
          [
            -105.0,
            0
          ],
          [
            -104.5659,
            5
          ],
          [
            -104.1449,
            10
          ],
          [
            -103.75,
            15
          ],
          [
            -103.393,
            20
          ],
          [
            -103.0849,
            25
          ],
          [
            -102.8349,
            30
          ],
          [
            -102.6508,
            35
          ],
          [
            -102.538,
            40
          ],
          [
            -102.5,
            45
          ],
          [
            -102.538,
            50
          ],
          [
            -102.6508,
            55
          ],
          [
            -102.8349,
            60
          ],
          [
            -103.0849,
            65
          ],
          [
            -103.393,
            70
          ],
          [
            -103.75,
            75
          ],
          [
            -104.1449,
            80
          ],
          [
            -104.5659,
            85
          ]
        ]
      }
    },
    {
      "type": "Feature",
      "properties": {
        "tzid": "Etc/GMT+6",
        "kind": "boundary-meridian"
      },
      "geometry": {
        "type": "LineString",
        "coordinates": [
          [
            -90.4341,
            -85
          ],
          [
            -90.8551,
            -80
          ],
          [
            -91.25,
            -75
          ],
          [
            -91.607,
            -70
          ],
          [
            -91.9151,
            -65
          ],
          [
            -92.1651,
            -60
          ],
          [
            -92.3492,
            -55
          ],
          [
            -92.462,
            -50
          ],
          [
            -92.5,
            -45
          ],
          [
            -92.462,
            -40
          ],
          [
            -92.3492,
            -35
          ],
          [
            -92.1651,
            -30
          ],
          [
            -91.9151,
            -25
          ],
          [
            -91.607,
            -20
          ],
          [
            -91.25,
            -15
          ],
          [
            -90.8551,
            -10
          ],
          [
            -90.4341,
            -5
          ],
          [
            -90.0,
            0
          ],
          [
            -89.5659,
            5
          ],
          [
            -89.1449,
            10
          ],
          [
            -88.75,
            15
          ],
          [
            -88.393,
            20
          ],
          [
            -88.0849,
            25
          ],
          [
            -87.8349,
            30
          ],
          [
            -87.6508,
            35
          ],
          [
            -87.538,
            40
          ],
          [
            -87.5,
            45
          ],
          [
            -87.538,
            50
          ],
          [
            -87.6508,
            55
          ],
          [
            -87.8349,
            60
          ],
          [
            -88.0849,
            65
          ],
          [
            -88.393,
            70
          ],
          [
            -88.75,
            75
          ],
          [
            -89.1449,
            80
          ],
          [
            -89.5659,
            85
          ]
        ]
      }
    },
    {
      "type": "Feature",
      "properties": {
        "tzid": "Etc/GMT+5",
        "kind": "boundary-meridian"
      },
      "geometry": {
        "type": "LineString",
        "coordinates": [
          [
            -75.4341,
            -85
          ],
          [
            -75.8551,
            -80
          ],
          [
            -76.25,
            -75
          ],
          [
            -76.607,
            -70
          ],
          [
            -76.9151,
            -65
          ],
          [
            -77.1651,
            -60
          ],
          [
            -77.3492,
            -55
          ],
          [
            -77.462,
            -50
          ],
          [
            -77.5,
            -45
          ],
          [
            -77.462,
            -40
          ],
          [
            -77.3492,
            -35
          ],
          [
            -77.1651,
            -30
          ],
          [
            -76.9151,
            -25
          ],
          [
            -76.607,
            -20
          ],
          [
            -76.25,
            -15
          ],
          [
            -75.8551,
            -10
          ],
          [
            -75.4341,
            -5
          ],
          [
            -75.0,
            0
          ],
          [
            -74.5659,
            5
          ],
          [
            -74.1449,
            10
          ],
          [
            -73.75,
            15
          ],
          [
            -73.393,
            20
          ],
          [
            -73.0849,
            25
          ],
          [
            -72.8349,
            30
          ],
          [
            -72.6508,
            35
          ],
          [
            -72.538,
            40
          ],
          [
            -72.5,
            45
          ],
          [
            -72.538,
            50
          ],
          [
            -72.6508,
            55
          ],
          [
            -72.8349,
            60
          ],
          [
            -73.0849,
            65
          ],
          [
            -73.393,
            70
          ],
          [
            -73.75,
            75
          ],
          [
            -74.1449,
            80
          ],
          [
            -74.5659,
            85
          ]
        ]
      }
    },
    {
      "type": "Feature",
      "properties": {
        "tzid": "Etc/GMT+4",
        "kind": "boundary-meridian"
      },
      "geometry": {
        "type": "LineString",
        "coordinates": [
          [
            -60.4341,
            -85
          ],
          [
            -60.8551,
            -80
          ],
          [
            -61.25,
            -75
          ],
          [
            -61.607,
            -70
          ],
          [
            -61.9151,
            -65
          ],
          [
            -62.1651,
            -60
          ],
          [
            -62.3492,
            -55
          ],
          [
            -62.462,
            -50
          ],
          [
            -62.5,
            -45
          ],
          [
            -62.462,
            -40
          ],
          [
            -62.3492,
            -35
          ],
          [
            -62.1651,
            -30
          ],
          [
            -61.9151,
            -25
          ],
          [
            -61.607,
            -20
          ],
          [
            -61.25,
            -15
          ],
          [
            -60.8551,
            -10
          ],
          [
            -60.4341,
            -5
          ],
          [
            -60.0,
            0
          ],
          [
            -59.5659,
            5
          ],
          [
            -59.1449,
            10
          ],
          [
            -58.75,
            15
          ],
          [
            -58.393,
            20
          ],
          [
            -58.0849,
            25
          ],
          [
            -57.8349,
            30
          ],
          [
            -57.6508,
            35
          ],
          [
            -57.538,
            40
          ],
          [
            -57.5,
            45
          ],
          [
            -57.538,
            50
          ],
          [
            -57.6508,
            55
          ],
          [
            -57.8349,
            60
          ],
          [
            -58.0849,
            65
          ],
          [
            -58.393,
            70
          ],
          [
            -58.75,
            75
          ],
          [
            -59.1449,
            80
          ],
          [
            -59.5659,
            85
          ]
        ]
      }
    },
    {
      "type": "Feature",
      "properties": {
        "tzid": "Etc/GMT+3",
        "kind": "boundary-meridian"
      },
      "geometry": {
        "type": "LineString",
        "coordinates": [
          [
            -45.4341,
            -85
          ],
          [
            -45.8551,
            -80
          ],
          [
            -46.25,
            -75
          ],
          [
            -46.607,
            -70
          ],
          [
            -46.9151,
            -65
          ],
          [
            -47.1651,
            -60
          ],
          [
            -47.3492,
            -55
          ],
          [
            -47.462,
            -50
          ],
          [
            -47.5,
            -45
          ],
          [
            -47.462,
            -40
          ],
          [
            -47.3492,
            -35
          ],
          [
            -47.1651,
            -30
          ],
          [
            -46.9151,
            -25
          ],
          [
            -46.607,
            -20
          ],
          [
            -46.25,
            -15
          ],
          [
            -45.8551,
            -10
          ],
          [
            -45.4341,
            -5
          ],
          [
            -45.0,
            0
          ],
          [
            -44.5659,
            5
          ],
          [
            -44.1449,
            10
          ],
          [
            -43.75,
            15
          ],
          [
            -43.393,
            20
          ],
          [
            -43.0849,
            25
          ],
          [
            -42.8349,
            30
          ],
          [
            -42.6508,
            35
          ],
          [
            -42.538,
            40
          ],
          [
            -42.5,
            45
          ],
          [
            -42.538,
            50
          ],
          [
            -42.6508,
            55
          ],
          [
            -42.8349,
            60
          ],
          [
            -43.0849,
            65
          ],
          [
            -43.393,
            70
          ],
          [
            -43.75,
            75
          ],
          [
            -44.1449,
            80
          ],
          [
            -44.5659,
            85
          ]
        ]
      }
    },
    {
      "type": "Feature",
      "properties": {
        "tzid": "Etc/GMT+2",
        "kind": "boundary-meridian"
      },
      "geometry": {
        "type": "LineString",
        "coordinates": [
          [
            -30.4341,
            -85
          ],
          [
            -30.8551,
            -80
          ],
          [
            -31.25,
            -75
          ],
          [
            -31.607,
            -70
          ],
          [
            -31.9151,
            -65
          ],
          [
            -32.1651,
            -60
          ],
          [
            -32.3492,
            -55
          ],
          [
            -32.462,
            -50
          ],
          [
            -32.5,
            -45
          ],
          [
            -32.462,
            -40
          ],
          [
            -32.3492,
            -35
          ],
          [
            -32.1651,
            -30
          ],
          [
            -31.9151,
            -25
          ],
          [
            -31.607,
            -20
          ],
          [
            -31.25,
            -15
          ],
          [
            -30.8551,
            -10
          ],
          [
            -30.4341,
            -5
          ],
          [
            -30.0,
            0
          ],
          [
            -29.5659,
            5
          ],
          [
            -29.1449,
            10
          ],
          [
            -28.75,
            15
          ],
          [
            -28.393,
            20
          ],
          [
            -28.0849,
            25
          ],
          [
            -27.8349,
            30
          ],
          [
            -27.6508,
            35
          ],
          [
            -27.538,
            40
          ],
          [
            -27.5,
            45
          ],
          [
            -27.538,
            50
          ],
          [
            -27.6508,
            55
          ],
          [
            -27.8349,
            60
          ],
          [
            -28.0849,
            65
          ],
          [
            -28.393,
            70
          ],
          [
            -28.75,
            75
          ],
          [
            -29.1449,
            80
          ],
          [
            -29.5659,
            85
          ]
        ]
      }
    },
    {
      "type": "Feature",
      "properties": {
        "tzid": "Etc/GMT+1",
        "kind": "boundary-meridian"
      },
      "geometry": {
        "type": "LineString",
        "coordinates": [
          [
            -15.4341,
            -85
          ],
          [
            -15.8551,
            -80
          ],
          [
            -16.25,
            -75
          ],
          [
            -16.607,
            -70
          ],
          [
            -16.9151,
            -65
          ],
          [
            -17.1651,
            -60
          ],
          [
            -17.3492,
            -55
          ],
          [
            -17.462,
            -50
          ],
          [
            -17.5,
            -45
          ],
          [
            -17.462,
            -40
          ],
          [
            -17.3492,
            -35
          ],
          [
            -17.1651,
            -30
          ],
          [
            -16.9151,
            -25
          ],
          [
            -16.607,
            -20
          ],
          [
            -16.25,
            -15
          ],
          [
            -15.8551,
            -10
          ],
          [
            -15.4341,
            -5
          ],
          [
            -15.0,
            0
          ],
          [
            -14.5659,
            5
          ],
          [
            -14.1449,
            10
          ],
          [
            -13.75,
            15
          ],
          [
            -13.393,
            20
          ],
          [
            -13.0849,
            25
          ],
          [
            -12.8349,
            30
          ],
          [
            -12.6508,
            35
          ],
          [
            -12.538,
            40
          ],
          [
            -12.5,
            45
          ],
          [
            -12.538,
            50
          ],
          [
            -12.6508,
            55
          ],
          [
            -12.8349,
            60
          ],
          [
            -13.0849,
            65
          ],
          [
            -13.393,
            70
          ],
          [
            -13.75,
            75
          ],
          [
            -14.1449,
            80
          ],
          [
            -14.5659,
            85
          ]
        ]
      }
    },
    {
      "type": "Feature",
      "properties": {
        "tzid": "Etc/GMT+0",
        "kind": "boundary-meridian"
      },
      "geometry": {
        "type": "LineString",
        "coordinates": [
          [
            -0.4341,
            -85
          ],
          [
            -0.8551,
            -80
          ],
          [
            -1.25,
            -75
          ],
          [
            -1.607,
            -70
          ],
          [
            -1.9151,
            -65
          ],
          [
            -2.1651,
            -60
          ],
          [
            -2.3492,
            -55
          ],
          [
            -2.462,
            -50
          ],
          [
            -2.5,
            -45
          ],
          [
            -2.462,
            -40
          ],
          [
            -2.3492,
            -35
          ],
          [
            -2.1651,
            -30
          ],
          [
            -1.9151,
            -25
          ],
          [
            -1.607,
            -20
          ],
          [
            -1.25,
            -15
          ],
          [
            -0.8551,
            -10
          ],
          [
            -0.4341,
            -5
          ],
          [
            0.0,
            0
          ],
          [
            0.4341,
            5
          ],
          [
            0.8551,
            10
          ],
          [
            1.25,
            15
          ],
          [
            1.607,
            20
          ],
          [
            1.9151,
            25
          ],
          [
            2.1651,
            30
          ],
          [
            2.3492,
            35
          ],
          [
            2.462,
            40
          ],
          [
            2.5,
            45
          ],
          [
            2.462,
            50
          ],
          [
            2.3492,
            55
          ],
          [
            2.1651,
            60
          ],
          [
            1.9151,
            65
          ],
          [
            1.607,
            70
          ],
          [
            1.25,
            75
          ],
          [
            0.8551,
            80
          ],
          [
            0.4341,
            85
          ]
        ]
      }
    },
    {
      "type": "Feature",
      "properties": {
        "tzid": "Etc/GMT-1",
        "kind": "boundary-meridian"
      },
      "geometry": {
        "type": "LineString",
        "coordinates": [
          [
            14.5659,
            -85
          ],
          [
            14.1449,
            -80
          ],
          [
            13.75,
            -75
          ],
          [
            13.393,
            -70
          ],
          [
            13.0849,
            -65
          ],
          [
            12.8349,
            -60
          ],
          [
            12.6508,
            -55
          ],
          [
            12.538,
            -50
          ],
          [
            12.5,
            -45
          ],
          [
            12.538,
            -40
          ],
          [
            12.6508,
            -35
          ],
          [
            12.8349,
            -30
          ],
          [
            13.0849,
            -25
          ],
          [
            13.393,
            -20
          ],
          [
            13.75,
            -15
          ],
          [
            14.1449,
            -10
          ],
          [
            14.5659,
            -5
          ],
          [
            15.0,
            0
          ],
          [
            15.4341,
            5
          ],
          [
            15.8551,
            10
          ],
          [
            16.25,
            15
          ],
          [
            16.607,
            20
          ],
          [
            16.9151,
            25
          ],
          [
            17.1651,
            30
          ],
          [
            17.3492,
            35
          ],
          [
            17.462,
            40
          ],
          [
            17.5,
            45
          ],
          [
            17.462,
            50
          ],
          [
            17.3492,
            55
          ],
          [
            17.1651,
            60
          ],
          [
            16.9151,
            65
          ],
          [
            16.607,
            70
          ],
          [
            16.25,
            75
          ],
          [
            15.8551,
            80
          ],
          [
            15.4341,
            85
          ]
        ]
      }
    },
    {
      "type": "Feature",
      "properties": {
        "tzid": "Etc/GMT-2",
        "kind": "boundary-meridian"
      },
      "geometry": {
        "type": "LineString",
        "coordinates": [
          [
            29.5659,
            -85
          ],
          [
            29.1449,
            -80
          ],
          [
            28.75,
            -75
          ],
          [
            28.393,
            -70
          ],
          [
            28.0849,
            -65
          ],
          [
            27.8349,
            -60
          ],
          [
            27.6508,
            -55
          ],
          [
            27.538,
            -50
          ],
          [
            27.5,
            -45
          ],
          [
            27.538,
            -40
          ],
          [
            27.6508,
            -35
          ],
          [
            27.8349,
            -30
          ],
          [
            28.0849,
            -25
          ],
          [
            28.393,
            -20
          ],
          [
            28.75,
            -15
          ],
          [
            29.1449,
            -10
          ],
          [
            29.5659,
            -5
          ],
          [
            30.0,
            0
          ],
          [
            30.4341,
            5
          ],
          [
            30.8551,
            10
          ],
          [
            31.25,
            15
          ],
          [
            31.607,
            20
          ],
          [
            31.9151,
            25
          ],
          [
            32.1651,
            30
          ],
          [
            32.3492,
            35
          ],
          [
            32.462,
            40
          ],
          [
            32.5,
            45
          ],
          [
            32.462,
            50
          ],
          [
            32.3492,
            55
          ],
          [
            32.1651,
            60
          ],
          [
            31.9151,
            65
          ],
          [
            31.607,
            70
          ],
          [
            31.25,
            75
          ],
          [
            30.8551,
            80
          ],
          [
            30.4341,
            85
          ]
        ]
      }
    },
    {
      "type": "Feature",
      "properties": {
        "tzid": "Etc/GMT-3",
        "kind": "boundary-meridian"
      },
      "geometry": {
        "type": "LineString",
        "coordinates": [
          [
            44.5659,
            -85
          ],
          [
            44.1449,
            -80
          ],
          [
            43.75,
            -75
          ],
          [
            43.393,
            -70
          ],
          [
            43.0849,
            -65
          ],
          [
            42.8349,
            -60
          ],
          [
            42.6508,
            -55
          ],
          [
            42.538,
            -50
          ],
          [
            42.5,
            -45
          ],
          [
            42.538,
            -40
          ],
          [
            42.6508,
            -35
          ],
          [
            42.8349,
            -30
          ],
          [
            43.0849,
            -25
          ],
          [
            43.393,
            -20
          ],
          [
            43.75,
            -15
          ],
          [
            44.1449,
            -10
          ],
          [
            44.5659,
            -5
          ],
          [
            45.0,
            0
          ],
          [
            45.4341,
            5
          ],
          [
            45.8551,
            10
          ],
          [
            46.25,
            15
          ],
          [
            46.607,
            20
          ],
          [
            46.9151,
            25
          ],
          [
            47.1651,
            30
          ],
          [
            47.3492,
            35
          ],
          [
            47.462,
            40
          ],
          [
            47.5,
            45
          ],
          [
            47.462,
            50
          ],
          [
            47.3492,
            55
          ],
          [
            47.1651,
            60
          ],
          [
            46.9151,
            65
          ],
          [
            46.607,
            70
          ],
          [
            46.25,
            75
          ],
          [
            45.8551,
            80
          ],
          [
            45.4341,
            85
          ]
        ]
      }
    },
    {
      "type": "Feature",
      "properties": {
        "tzid": "Etc/GMT-4",
        "kind": "boundary-meridian"
      },
      "geometry": {
        "type": "LineString",
        "coordinates": [
          [
            59.5659,
            -85
          ],
          [
            59.1449,
            -80
          ],
          [
            58.75,
            -75
          ],
          [
            58.393,
            -70
          ],
          [
            58.0849,
            -65
          ],
          [
            57.8349,
            -60
          ],
          [
            57.6508,
            -55
          ],
          [
            57.538,
            -50
          ],
          [
            57.5,
            -45
          ],
          [
            57.538,
            -40
          ],
          [
            57.6508,
            -35
          ],
          [
            57.8349,
            -30
          ],
          [
            58.0849,
            -25
          ],
          [
            58.393,
            -20
          ],
          [
            58.75,
            -15
          ],
          [
            59.1449,
            -10
          ],
          [
            59.5659,
            -5
          ],
          [
            60.0,
            0
          ],
          [
            60.4341,
            5
          ],
          [
            60.8551,
            10
          ],
          [
            61.25,
            15
          ],
          [
            61.607,
            20
          ],
          [
            61.9151,
            25
          ],
          [
            62.1651,
            30
          ],
          [
            62.3492,
            35
          ],
          [
            62.462,
            40
          ],
          [
            62.5,
            45
          ],
          [
            62.462,
            50
          ],
          [
            62.3492,
            55
          ],
          [
            62.1651,
            60
          ],
          [
            61.9151,
            65
          ],
          [
            61.607,
            70
          ],
          [
            61.25,
            75
          ],
          [
            60.8551,
            80
          ],
          [
            60.4341,
            85
          ]
        ]
      }
    },
    {
      "type": "Feature",
      "properties": {
        "tzid": "Etc/GMT-5",
        "kind": "boundary-meridian"
      },
      "geometry": {
        "type": "LineString",
        "coordinates": [
          [
            74.5659,
            -85
          ],
          [
            74.1449,
            -80
          ],
          [
            73.75,
            -75
          ],
          [
            73.393,
            -70
          ],
          [
            73.0849,
            -65
          ],
          [
            72.8349,
            -60
          ],
          [
            72.6508,
            -55
          ],
          [
            72.538,
            -50
          ],
          [
            72.5,
            -45
          ],
          [
            72.538,
            -40
          ],
          [
            72.6508,
            -35
          ],
          [
            72.8349,
            -30
          ],
          [
            73.0849,
            -25
          ],
          [
            73.393,
            -20
          ],
          [
            73.75,
            -15
          ],
          [
            74.1449,
            -10
          ],
          [
            74.5659,
            -5
          ],
          [
            75.0,
            0
          ],
          [
            75.4341,
            5
          ],
          [
            75.8551,
            10
          ],
          [
            76.25,
            15
          ],
          [
            76.607,
            20
          ],
          [
            76.9151,
            25
          ],
          [
            77.1651,
            30
          ],
          [
            77.3492,
            35
          ],
          [
            77.462,
            40
          ],
          [
            77.5,
            45
          ],
          [
            77.462,
            50
          ],
          [
            77.3492,
            55
          ],
          [
            77.1651,
            60
          ],
          [
            76.9151,
            65
          ],
          [
            76.607,
            70
          ],
          [
            76.25,
            75
          ],
          [
            75.8551,
            80
          ],
          [
            75.4341,
            85
          ]
        ]
      }
    },
    {
      "type": "Feature",
      "properties": {
        "tzid": "Etc/GMT-6",
        "kind": "boundary-meridian"
      },
      "geometry": {
        "type": "LineString",
        "coordinates": [
          [
            89.5659,
            -85
          ],
          [
            89.1449,
            -80
          ],
          [
            88.75,
            -75
          ],
          [
            88.393,
            -70
          ],
          [
            88.0849,
            -65
          ],
          [
            87.8349,
            -60
          ],
          [
            87.6508,
            -55
          ],
          [
            87.538,
            -50
          ],
          [
            87.5,
            -45
          ],
          [
            87.538,
            -40
          ],
          [
            87.6508,
            -35
          ],
          [
            87.8349,
            -30
          ],
          [
            88.0849,
            -25
          ],
          [
            88.393,
            -20
          ],
          [
            88.75,
            -15
          ],
          [
            89.1449,
            -10
          ],
          [
            89.5659,
            -5
          ],
          [
            90.0,
            0
          ],
          [
            90.4341,
            5
          ],
          [
            90.8551,
            10
          ],
          [
            91.25,
            15
          ],
          [
            91.607,
            20
          ],
          [
            91.9151,
            25
          ],
          [
            92.1651,
            30
          ],
          [
            92.3492,
            35
          ],
          [
            92.462,
            40
          ],
          [
            92.5,
            45
          ],
          [
            92.462,
            50
          ],
          [
            92.3492,
            55
          ],
          [
            92.1651,
            60
          ],
          [
            91.9151,
            65
          ],
          [
            91.607,
            70
          ],
          [
            91.25,
            75
          ],
          [
            90.8551,
            80
          ],
          [
            90.4341,
            85
          ]
        ]
      }
    },
    {
      "type": "Feature",
      "properties": {
        "tzid": "Etc/GMT-7",
        "kind": "boundary-meridian"
      },
      "geometry": {
        "type": "LineString",
        "coordinates": [
          [
            104.5659,
            -85
          ],
          [
            104.1449,
            -80
          ],
          [
            103.75,
            -75
          ],
          [
            103.393,
            -70
          ],
          [
            103.0849,
            -65
          ],
          [
            102.8349,
            -60
          ],
          [
            102.6508,
            -55
          ],
          [
            102.538,
            -50
          ],
          [
            102.5,
            -45
          ],
          [
            102.538,
            -40
          ],
          [
            102.6508,
            -35
          ],
          [
            102.8349,
            -30
          ],
          [
            103.0849,
            -25
          ],
          [
            103.393,
            -20
          ],
          [
            103.75,
            -15
          ],
          [
            104.1449,
            -10
          ],
          [
            104.5659,
            -5
          ],
          [
            105.0,
            0
          ],
          [
            105.4341,
            5
          ],
          [
            105.8551,
            10
          ],
          [
            106.25,
            15
          ],
          [
            106.607,
            20
          ],
          [
            106.9151,
            25
          ],
          [
            107.1651,
            30
          ],
          [
            107.3492,
            35
          ],
          [
            107.462,
            40
          ],
          [
            107.5,
            45
          ],
          [
            107.462,
            50
          ],
          [
            107.3492,
            55
          ],
          [
            107.1651,
            60
          ],
          [
            106.9151,
            65
          ],
          [
            106.607,
            70
          ],
          [
            106.25,
            75
          ],
          [
            105.8551,
            80
          ],
          [
            105.4341,
            85
          ]
        ]
      }
    },
    {
      "type": "Feature",
      "properties": {
        "tzid": "Etc/GMT-8",
        "kind": "boundary-meridian"
      },
      "geometry": {
        "type": "LineString",
        "coordinates": [
          [
            119.5659,
            -85
          ],
          [
            119.1449,
            -80
          ],
          [
            118.75,
            -75
          ],
          [
            118.393,
            -70
          ],
          [
            118.0849,
            -65
          ],
          [
            117.8349,
            -60
          ],
          [
            117.6508,
            -55
          ],
          [
            117.538,
            -50
          ],
          [
            117.5,
            -45
          ],
          [
            117.538,
            -40
          ],
          [
            117.6508,
            -35
          ],
          [
            117.8349,
            -30
          ],
          [
            118.0849,
            -25
          ],
          [
            118.393,
            -20
          ],
          [
            118.75,
            -15
          ],
          [
            119.1449,
            -10
          ],
          [
            119.5659,
            -5
          ],
          [
            120.0,
            0
          ],
          [
            120.4341,
            5
          ],
          [
            120.8551,
            10
          ],
          [
            121.25,
            15
          ],
          [
            121.607,
            20
          ],
          [
            121.9151,
            25
          ],
          [
            122.1651,
            30
          ],
          [
            122.3492,
            35
          ],
          [
            122.462,
            40
          ],
          [
            122.5,
            45
          ],
          [
            122.462,
            50
          ],
          [
            122.3492,
            55
          ],
          [
            122.1651,
            60
          ],
          [
            121.9151,
            65
          ],
          [
            121.607,
            70
          ],
          [
            121.25,
            75
          ],
          [
            120.8551,
            80
          ],
          [
            120.4341,
            85
          ]
        ]
      }
    },
    {
      "type": "Feature",
      "properties": {
        "tzid": "Etc/GMT-9",
        "kind": "boundary-meridian"
      },
      "geometry": {
        "type": "LineString",
        "coordinates": [
          [
            134.5659,
            -85
          ],
          [
            134.1449,
            -80
          ],
          [
            133.75,
            -75
          ],
          [
            133.393,
            -70
          ],
          [
            133.0849,
            -65
          ],
          [
            132.8349,
            -60
          ],
          [
            132.6508,
            -55
          ],
          [
            132.538,
            -50
          ],
          [
            132.5,
            -45
          ],
          [
            132.538,
            -40
          ],
          [
            132.6508,
            -35
          ],
          [
            132.8349,
            -30
          ],
          [
            133.0849,
            -25
          ],
          [
            133.393,
            -20
          ],
          [
            133.75,
            -15
          ],
          [
            134.1449,
            -10
          ],
          [
            134.5659,
            -5
          ],
          [
            135.0,
            0
          ],
          [
            135.4341,
            5
          ],
          [
            135.8551,
            10
          ],
          [
            136.25,
            15
          ],
          [
            136.607,
            20
          ],
          [
            136.9151,
            25
          ],
          [
            137.1651,
            30
          ],
          [
            137.3492,
            35
          ],
          [
            137.462,
            40
          ],
          [
            137.5,
            45
          ],
          [
            137.462,
            50
          ],
          [
            137.3492,
            55
          ],
          [
            137.1651,
            60
          ],
          [
            136.9151,
            65
          ],
          [
            136.607,
            70
          ],
          [
            136.25,
            75
          ],
          [
            135.8551,
            80
          ],
          [
            135.4341,
            85
          ]
        ]
      }
    },
    {
      "type": "Feature",
      "properties": {
        "tzid": "Etc/GMT-10",
        "kind": "boundary-meridian"
      },
      "geometry": {
        "type": "LineString",
        "coordinates": [
          [
            149.5659,
            -85
          ],
          [
            149.1449,
            -80
          ],
          [
            148.75,
            -75
          ],
          [
            148.393,
            -70
          ],
          [
            148.0849,
            -65
          ],
          [
            147.8349,
            -60
          ],
          [
            147.6508,
            -55
          ],
          [
            147.538,
            -50
          ],
          [
            147.5,
            -45
          ],
          [
            147.538,
            -40
          ],
          [
            147.6508,
            -35
          ],
          [
            147.8349,
            -30
          ],
          [
            148.0849,
            -25
          ],
          [
            148.393,
            -20
          ],
          [
            148.75,
            -15
          ],
          [
            149.1449,
            -10
          ],
          [
            149.5659,
            -5
          ],
          [
            150.0,
            0
          ],
          [
            150.4341,
            5
          ],
          [
            150.8551,
            10
          ],
          [
            151.25,
            15
          ],
          [
            151.607,
            20
          ],
          [
            151.9151,
            25
          ],
          [
            152.1651,
            30
          ],
          [
            152.3492,
            35
          ],
          [
            152.462,
            40
          ],
          [
            152.5,
            45
          ],
          [
            152.462,
            50
          ],
          [
            152.3492,
            55
          ],
          [
            152.1651,
            60
          ],
          [
            151.9151,
            65
          ],
          [
            151.607,
            70
          ],
          [
            151.25,
            75
          ],
          [
            150.8551,
            80
          ],
          [
            150.4341,
            85
          ]
        ]
      }
    },
    {
      "type": "Feature",
      "properties": {
        "tzid": "Etc/GMT-11",
        "kind": "boundary-meridian"
      },
      "geometry": {
        "type": "LineString",
        "coordinates": [
          [
            164.5659,
            -85
          ],
          [
            164.1449,
            -80
          ],
          [
            163.75,
            -75
          ],
          [
            163.393,
            -70
          ],
          [
            163.0849,
            -65
          ],
          [
            162.8349,
            -60
          ],
          [
            162.6508,
            -55
          ],
          [
            162.538,
            -50
          ],
          [
            162.5,
            -45
          ],
          [
            162.538,
            -40
          ],
          [
            162.6508,
            -35
          ],
          [
            162.8349,
            -30
          ],
          [
            163.0849,
            -25
          ],
          [
            163.393,
            -20
          ],
          [
            163.75,
            -15
          ],
          [
            164.1449,
            -10
          ],
          [
            164.5659,
            -5
          ],
          [
            165.0,
            0
          ],
          [
            165.4341,
            5
          ],
          [
            165.8551,
            10
          ],
          [
            166.25,
            15
          ],
          [
            166.607,
            20
          ],
          [
            166.9151,
            25
          ],
          [
            167.1651,
            30
          ],
          [
            167.3492,
            35
          ],
          [
            167.462,
            40
          ],
          [
            167.5,
            45
          ],
          [
            167.462,
            50
          ],
          [
            167.3492,
            55
          ],
          [
            167.1651,
            60
          ],
          [
            166.9151,
            65
          ],
          [
            166.607,
            70
          ],
          [
            166.25,
            75
          ],
          [
            165.8551,
            80
          ],
          [
            165.4341,
            85
          ]
        ]
      }
    },
    {
      "type": "Feature",
      "properties": {
        "tzid": "Etc/GMT-12",
        "kind": "boundary-meridian"
      },
      "geometry": {
        "type": "LineString",
        "coordinates": [
          [
            179.5659,
            -85
          ],
          [
            179.1449,
            -80
          ],
          [
            178.75,
            -75
          ],
          [
            178.393,
            -70
          ],
          [
            178.0849,
            -65
          ],
          [
            177.8349,
            -60
          ],
          [
            177.6508,
            -55
          ],
          [
            177.538,
            -50
          ],
          [
            177.5,
            -45
          ],
          [
            177.538,
            -40
          ],
          [
            177.6508,
            -35
          ],
          [
            177.8349,
            -30
          ],
          [
            178.0849,
            -25
          ],
          [
            178.393,
            -20
          ],
          [
            178.75,
            -15
          ],
          [
            179.1449,
            -10
          ],
          [
            179.5659,
            -5
          ],
          [
            180.0,
            0
          ],
          [
            180.4341,
            5
          ],
          [
            180.8551,
            10
          ],
          [
            181.25,
            15
          ],
          [
            181.607,
            20
          ],
          [
            181.9151,
            25
          ],
          [
            182.1651,
            30
          ],
          [
            182.3492,
            35
          ],
          [
            182.462,
            40
          ],
          [
            182.5,
            45
          ],
          [
            182.462,
            50
          ],
          [
            182.3492,
            55
          ],
          [
            182.1651,
            60
          ],
          [
            181.9151,
            65
          ],
          [
            181.607,
            70
          ],
          [
            181.25,
            75
          ],
          [
            180.8551,
            80
          ],
          [
            180.4341,
            85
          ]
        ]
      }
    },
    {
      "type": "Feature",
      "properties": {
        "tzid": "boundary-extra-1",
        "kind": "boundary-political"
      },
      "geometry": {
        "type": "LineString",
        "coordinates": [
          [
            -82,
            25
          ],
          [
            -82,
            31
          ],
          [
            -85,
            34
          ],
          [
            -85,
            41
          ],
          [
            -83,
            46
          ],
          [
            -79,
            48
          ]
        ]
      }
    },
    {
      "type": "Feature",
      "properties": {
        "tzid": "boundary-extra-2",
        "kind": "boundary-political"
      },
      "geometry": {
        "type": "LineString",
        "coordinates": [
          [
            -97,
            26
          ],
          [
            -97,
            49
          ]
        ]
      }
    },
    {
      "type": "Feature",
      "properties": {
        "tzid": "boundary-extra-3",
        "kind": "boundary-political"
      },
      "geometry": {
        "type": "LineString",
        "coordinates": [
          [
            -114,
            32
          ],
          [
            -114,
            49
          ]
        ]
      }
    },
    {
      "type": "Feature",
      "properties": {
        "tzid": "boundary-extra-4",
        "kind": "boundary-political"
      },
      "geometry": {
        "type": "LineString",
        "coordinates": [
          [
            112,
            -44
          ],
          [
            129,
            -31
          ],
          [
            141,
            -16
          ],
          [
            141,
            -10
          ]
        ]
      }
    },
    {
      "type": "Feature",
      "properties": {
        "tzid": "boundary-extra-5",
        "kind": "boundary-political"
      },
      "geometry": {
        "type": "LineString",
        "coordinates": [
          [
            35,
            31
          ],
          [
            35,
            42
          ],
          [
            44,
            42
          ],
          [
            51,
            39
          ],
          [
            60,
            37
          ]
        ]
      }
    },
    {
      "type": "Feature",
      "properties": {
        "tzid": "boundary-extra-6",
        "kind": "boundary-political"
      },
      "geometry": {
        "type": "LineString",
        "coordinates": [
          [
            -10,
            36
          ],
          [
            0,
            43
          ],
          [
            7,
            49
          ],
          [
            15,
            54
          ],
          [
            24,
            59
          ]
        ]
      }
    }
  ]
}